STARLINK-6187           
1 56546U 23065AV  25331.30068723  .00002449  00000+0  19627-3 0  9991
2 56546  43.0041  59.6358 0001946 274.4177  85.6443 15.02538941141079
STARLINK-6291           
1 56547U 23065AW  25331.25964592 -.00000185  00000+0  13920-5 0  9993
2 56547  43.0045  59.3315 0001155 267.0443  93.0267 15.02524364141071
STARLINK-6244           
1 56548U 23065AX  25331.29625549  .00000285  00000+0  36178-4 0  9993
2 56548  43.0065  59.6015 0002365 282.6290  77.4288 15.02533544141070
STARLINK-6263           
1 56549U 23065AY  25331.28071758  .00000408  00000+0  45299-4 0  9991
2 56549  43.0023  59.4833 0001210 273.8258  86.2446 15.02534788141070
STARLINK-6255           
1 56550U 23065AZ  25331.28959778 -.00000104  00000+0  73548-5 0  9993
2 56550  43.0053  59.5517 0001358 268.4139  91.6548 15.02533951141070
STARLINK-6199           
1 56551U 23065BA  25331.27627830  .00000079  00000+0  20961-4 0  9994
2 56551  43.0050  59.4501 0001240 267.9534  92.1166 15.02531900141077
STARLINK-5802           
1 56552U 23065BB  25331.28293585  .00000981  00000+0  87706-4 0  9994
2 56552  43.0047  59.5012 0001176 271.9046  88.1662 15.02533854141079
STARLINK-6074           
1 56553U 23065BC  25330.54169007  .00000556  00000+0  56223-4 0  9992
2 56553  43.0018  63.3934 0001238 253.7492 106.3214 15.02537117140965
STARLINK-6295           
1 56554U 23065BD  25330.67908624 -.00000135  00000+0  50786-5 0  9996
2 56554  43.0045  62.7104 0001382 261.9765  98.0921 15.02534772140980
STARLINK-6252           
1 56555U 23065BE  25331.26628963 -.00000101  00000+0  75984-5 0  9998
2 56555  43.0049  59.3754 0001674 271.5538  88.5112 15.02533700141074
STARLINK-5302           
1 56556U 23065BF  25331.26962093 -.00000248  00000+0 -32949-5 0  9991
2 56556  43.0057  59.4008 0001572 272.2083  87.8580 15.02532725141074
STARLINK-6265           
1 56557U 23065BG  25331.26295304 -.00003088  00000+0 -21354-3 0  9997
2 56557  43.0041  59.3460 0001352 267.2182  92.8505 15.02553138141073
STARLINK-6286           
1 56558U 23065BH  25331.29958253  .00001160  00000+0  10091-3 0  9993
2 56558  43.0029  59.6099 0001956 279.0466  81.0155 15.02537938141078
STARLINK-30122          
1 56688U 23067A   25330.78220794 -.00001284  00000+0 -80051-4 0  9997
2 56688  43.0018 114.1494 0001022 254.7945 105.2785 15.02528477140246
STARLINK-30129          
1 56689U 23067B   25330.43982829  .00000016  00000+0  16227-4 0  9998
2 56689  43.0034 115.8916 0001251 270.3762  89.6937 15.02533321140122
STARLINK-30124          
1 56690U 23067C   25330.43649802  .00000091  00000+0  21790-4 0  9995
2 56690  43.0020 115.8718 0001316 261.8020  98.2673 15.02535101140124
