[{"OBJECT_NAME":"STARLINK-6187","OBJECT_ID":"2023-065AV","EPOCH":"2025-11-27T07:12:59.376672","MEAN_MOTION":15.02538941,"ECCENTRICITY":0.00019465,"INCLINATION":43.0041,"RA_OF_ASC_NODE":59.6358,"ARG_OF_PERICENTER":274.4177,"MEAN_ANOMALY":85.6443,"EPHEMERIS_TYPE":0,"CLASSIFICATION_TYPE":"U","NORAD_CAT_ID":56546,"ELEMENT_SET_NO":999,"REV_AT_EPOCH":14107,"BSTAR":0.00019627446,"MEAN_MOTION_DOT":2.449e-5,"MEAN_MOTION_DDOT":0},{"OBJECT_NAME":"STARLINK-6291","OBJECT_ID":"2023-065AW","EPOCH":"2025-11-27T06:13:53.407488","MEAN_MOTION":15.02524364,"ECCENTRICITY":0.00011555,"INCLINATION":43.0045,"RA_OF_ASC_NODE":59.3315,"ARG_OF_PERICENTER":267.0443,"MEAN_ANOMALY":93.0267,"EPHEMERIS_TYPE":0,"CLASSIFICATION_TYPE":"U","NORAD_CAT_ID":56547,"ELEMENT_SET_NO":999,"REV_AT_EPOCH":14107,"BSTAR":1.392015e-6,"MEAN_MOTION_DOT":-1.85e-6,"MEAN_MOTION_DDOT":0},{"OBJECT_NAME":"STARLINK-6244","OBJECT_ID":"2023-065AX","EPOCH":"2025-11-27T07:06:36.474336","MEAN_MOTION":15.02533544,"ECCENTRICITY":0.0002365,"INCLINATION":43.0065,"RA_OF_ASC_NODE":59.6015,"ARG_OF_PERICENTER":282.629,"MEAN_ANOMALY":77.4288,"EPHEMERIS_TYPE":0,"CLASSIFICATION_TYPE":"U","NORAD_CAT_ID":56548,"ELEMENT_SET_NO":999,"REV_AT_EPOCH":14107,"BSTAR":3.6177873e-5,"MEAN_MOTION_DOT":2.85e-6,"MEAN_MOTION_DDOT":0},{"OBJECT_NAME":"STARLINK-6263","OBJECT_ID":"2023-065AY","EPOCH":"2025-11-27T06:44:13.998912","MEAN_MOTION":15.02534788,"ECCENTRICITY":0.000121,"INCLINATION":43.0023,"RA_OF_ASC_NODE":59.4833,"ARG_OF_PERICENTER":273.8258,"MEAN_ANOMALY":86.2446,"EPHEMERIS_TYPE":0,"CLASSIFICATION_TYPE":"U","NORAD_CAT_ID":56549,"ELEMENT_SET_NO":999,"REV_AT_EPOCH":14107,"BSTAR":4.5299165e-5,"MEAN_MOTION_DOT":4.08e-6,"MEAN_MOTION_DDOT":0},{"OBJECT_NAME":"STARLINK-6255","OBJECT_ID":"2023-065AZ","EPOCH":"2025-11-27T06:57:01.248192","MEAN_MOTION":15.02533951,"ECCENTRICITY":0.00013585,"INCLINATION":43.0053,"RA_OF_ASC_NODE":59.5517,"ARG_OF_PERICENTER":268.4139,"MEAN_ANOMALY":91.6548,"EPHEMERIS_TYPE":0,"CLASSIFICATION_TYPE":"U","NORAD_CAT_ID":56550,"ELEMENT_SET_NO":999,"REV_AT_EPOCH":14107,"BSTAR":7.354795e-6,"MEAN_MOTION_DOT":-1.04e-6,"MEAN_MOTION_DDOT":0},{"OBJECT_NAME":"STARLINK-6199","OBJECT_ID":"2023-065BA","EPOCH":"2025-11-27T06:37:50.445120","MEAN_MOTION":15.025319,"ECCENTRICITY":0.00012406,"INCLINATION":43.005,"RA_OF_ASC_NODE":59.4501,"ARG_OF_PERICENTER":267.9534,"MEAN_ANOMALY":92.1166,"EPHEMERIS_TYPE":0,"CLASSIFICATION_TYPE":"U","NORAD_CAT_ID":56551,"ELEMENT_SET_NO":999,"REV_AT_EPOCH":14107,"BSTAR":2.0960972e-5,"MEAN_MOTION_DOT":7.9e-7,"MEAN_MOTION_DDOT":0},{"OBJECT_NAME":"STARLINK-5802","OBJECT_ID":"2023-065BB","EPOCH":"2025-11-27T06:47:25.657440","MEAN_MOTION":15.02533854,"ECCENTRICITY":0.00011768,"INCLINATION":43.0047,"RA_OF_ASC_NODE":59.5012,"ARG_OF_PERICENTER":271.9046,"MEAN_ANOMALY":88.1662,"EPHEMERIS_TYPE":0,"CLASSIFICATION_TYPE":"U","NORAD_CAT_ID":56552,"ELEMENT_SET_NO":999,"REV_AT_EPOCH":14107,"BSTAR":8.7705914e-5,"MEAN_MOTION_DOT":9.81e-6,"MEAN_MOTION_DDOT":0},{"OBJECT_NAME":"STARLINK-6074","OBJECT_ID":"2023-065BC","EPOCH":"2025-11-26T13:00:02.022048","MEAN_MOTION":15.02537117,"ECCENTRICITY":0.00012383,"INCLINATION":43.0018,"RA_OF_ASC_NODE":63.3934,"ARG_OF_PERICENTER":253.7492,"MEAN_ANOMALY":106.3214,"EPHEMERIS_TYPE":0,"CLASSIFICATION_TYPE":"U","NORAD_CAT_ID":56553,"ELEMENT_SET_NO":999,"REV_AT_EPOCH":14096,"BSTAR":5.6222666e-5,"MEAN_MOTION_DOT":5.56e-6,"MEAN_MOTION_DDOT":0},{"OBJECT_NAME":"STARLINK-6295","OBJECT_ID":"2023-065BD","EPOCH":"2025-11-26T16:17:53.051136","MEAN_MOTION":15.02534772,"ECCENTRICITY":0.00013821,"INCLINATION":43.0045,"RA_OF_ASC_NODE":62.7104,"ARG_OF_PERICENTER":261.9765,"MEAN_ANOMALY":98.0921,"EPHEMERIS_TYPE":0,"CLASSIFICATION_TYPE":"U","NORAD_CAT_ID":56554,"ELEMENT_SET_NO":999,"REV_AT_EPOCH":14098,"BSTAR":5.078586e-6,"MEAN_MOTION_DOT":-1.35e-6,"MEAN_MOTION_DDOT":0},{"OBJECT_NAME":"STARLINK-6252","OBJECT_ID":"2023-065BE","EPOCH":"2025-11-27T06:23:27.424032","MEAN_MOTION":15.025337,"ECCENTRICITY":0.00016744,"INCLINATION":43.0049,"RA_OF_ASC_NODE":59.3754,"ARG_OF_PERICENTER":271.5538,"MEAN_ANOMALY":88.5112,"EPHEMERIS_TYPE":0,"CLASSIFICATION_TYPE":"U","NORAD_CAT_ID":56555,"ELEMENT_SET_NO":999,"REV_AT_EPOCH":14107,"BSTAR":7.59835e-6,"MEAN_MOTION_DOT":-1.01e-6,"MEAN_MOTION_DDOT":0},{"OBJECT_NAME":"STARLINK-5302","OBJECT_ID":"2023-065BF","EPOCH":"2025-11-27T06:28:15.248352","MEAN_MOTION":15.02532725,"ECCENTRICITY":0.00015724,"INCLINATION":43.0057,"RA_OF_ASC_NODE":59.4008,"ARG_OF_PERICENTER":272.2083,"MEAN_ANOMALY":87.858,"EPHEMERIS_TYPE":0,"CLASSIFICATION_TYPE":"U","NORAD_CAT_ID":56556,"ELEMENT_SET_NO":999,"REV_AT_EPOCH":14107,"BSTAR":-3.29486e-6,"MEAN_MOTION_DOT":-2.48e-6,"MEAN_MOTION_DDOT":0},{"OBJECT_NAME":"STARLINK-6265","OBJECT_ID":"2023-065BG","EPOCH":"2025-11-27T06:18:39.142656","MEAN_MOTION":15.02553138,"ECCENTRICITY":0.00013527,"INCLINATION":43.0041,"RA_OF_ASC_NODE":59.346,"ARG_OF_PERICENTER":267.2182,"MEAN_ANOMALY":92.8505,"EPHEMERIS_TYPE":0,"CLASSIFICATION_TYPE":"U","NORAD_CAT_ID":56557,"ELEMENT_SET_NO":999,"REV_AT_EPOCH":14107,"BSTAR":-0.00021353728,"MEAN_MOTION_DOT":-3.088e-5,"MEAN_MOTION_DDOT":0},{"OBJECT_NAME":"STARLINK-6286","OBJECT_ID":"2023-065BH","EPOCH":"2025-11-27T07:11:23.930592","MEAN_MOTION":15.02537938,"ECCENTRICITY":0.00019569,"INCLINATION":43.0029,"RA_OF_ASC_NODE":59.6099,"ARG_OF_PERICENTER":279.0466,"MEAN_ANOMALY":81.0155,"EPHEMERIS_TYPE":0,"CLASSIFICATION_TYPE":"U","NORAD_CAT_ID":56558,"ELEMENT_SET_NO":999,"REV_AT_EPOCH":14107,"BSTAR":0.00010091164,"MEAN_MOTION_DOT":1.16e-5,"MEAN_MOTION_DDOT":0},{"OBJECT_NAME":"STARLINK-30122","OBJECT_ID":"2023-067A","EPOCH":"2025-11-26T18:46:22.766016","MEAN_MOTION":15.02528477,"ECCENTRICITY":0.0001022,"INCLINATION":43.0018,"RA_OF_ASC_NODE":114.1494,"ARG_OF_PERICENTER":254.7945,"MEAN_ANOMALY":105.2785,"EPHEMERIS_TYPE":0,"CLASSIFICATION_TYPE":"U","NORAD_CAT_ID":56688,"ELEMENT_SET_NO":999,"REV_AT_EPOCH":14024,"BSTAR":-8.0050927e-5,"MEAN_MOTION_DOT":-1.284e-5,"MEAN_MOTION_DDOT":0},{"OBJECT_NAME":"STARLINK-30129","OBJECT_ID":"2023-067B","EPOCH":"2025-11-26T10:33:21.164256","MEAN_MOTION":15.02533321,"ECCENTRICITY":0.00012515,"INCLINATION":43.0034,"RA_OF_ASC_NODE":115.8916,"ARG_OF_PERICENTER":270.3762,"MEAN_ANOMALY":89.6937,"EPHEMERIS_TYPE":0,"CLASSIFICATION_TYPE":"U","NORAD_CAT_ID":56689,"ELEMENT_SET_NO":999,"REV_AT_EPOCH":14012,"BSTAR":1.6227382e-5,"MEAN_MOTION_DOT":1.6e-7,"MEAN_MOTION_DDOT":0},{"OBJECT_NAME":"STARLINK-30124","OBJECT_ID":"2023-067C","EPOCH":"2025-11-26T10:28:33.428928","MEAN_MOTION":15.02535101,"ECCENTRICITY":0.00013168,"INCLINATION":43.002,"RA_OF_ASC_NODE":115.8718,"ARG_OF_PERICENTER":261.802,"MEAN_ANOMALY":98.2673,"EPHEMERIS_TYPE":0,"CLASSIFICATION_TYPE":"U","NORAD_CAT_ID":56690,"ELEMENT_SET_NO":999,"REV_AT_EPOCH":14012,"BSTAR":2.1790162e-5,"MEAN_MOTION_DOT":9.1e-7,"MEAN_MOTION_DDOT":0}]
